start=new Date('2021-10-21T00:00:00.000Z').valueOf();
sats=[{"ARG_OF_PERICENTER":"297.1378","SEMIMAJOR_AXIS":"6925.367","EPHEMERIS_TYPE":"0","GP_ID":"187715441","PERIAPSIS":"542.913","COUNTRY_CODE":"US","MEAN_MOTION_DOT":"-0.00001447","REF_FRAME":"TEME","TLE_LINE2":"2 46726  53.0558 229.5528 0006236 297.1378  62.8975 15.06393972 55798","INCLINATION":"53.0558","DECAY_DATE":null,"MEAN_MOTION":"15.06393972","OBJECT_ID":"2020-073BJ","PERIOD":"95.593","CENTER_NAME":"EARTH","NORAD_CAT_ID":"46726","OBJECT_TYPE":"PAYLOAD","FILE":"3174382","MEAN_ELEMENT_THEORY":"SGP4","EPOCH":"2021-10-20T12:26:50.121024","OBJECT_NAME":"STARLINK-1829","APOAPSIS":"551.551","ECCENTRICITY":"0.00062360","MEAN_MOTION_DDOT":"0.0000000000000","ELEMENT_SET_NO":"999","TLE_LINE1":"1 46726U 20073BJ  21293.51863566 -.00001447  00000-0 -78125-4 0  9999","MEAN_ANOMALY":"62.8975","RCS_SIZE":"LARGE","BSTAR":"-0.00007812500000","LAUNCH_DATE":"2020-10-18","RA_OF_ASC_NODE":"229.5528","TIME_SYSTEM":"UTC","SITE":"AFETR","CLASSIFICATION_TYPE":"U","REV_AT_EPOCH":"5579"},{"SEMIMAJOR_AXIS":"6925.316","ARG_OF_PERICENTER":"72.1855","MEAN_MOTION_DOT":"0.00001750","COUNTRY_CODE":"US","PERIAPSIS":"545.986","GP_ID":"187715192","EPHEMERIS_TYPE":"0","DECAY_DATE":null,"INCLINATION":"53.0530","TLE_LINE2":"2 46727  53.0530 204.7477 0001726  72.1855 287.9322 15.06410536 56149","REF_FRAME":"TEME","PERIOD":"95.591","CENTER_NAME":"EARTH","OBJECT_ID":"2020-073BK","MEAN_MOTION":"15.06410536","MEAN_ELEMENT_THEORY":"SGP4","FILE":"3174382","OBJECT_TYPE":"PAYLOAD","NORAD_CAT_ID":"46727","ELEMENT_SET_NO":"999","ECCENTRICITY":"0.00017260","MEAN_MOTION_DDOT":"0.0000000000000","OBJECT_NAME":"STARLINK-1830","APOAPSIS":"548.377","EPOCH":"2021-10-20T11:23:47.338944","BSTAR":"0.00013633000000","RCS_SIZE":"LARGE","MEAN_ANOMALY":"287.9322","TLE_LINE1":"1 46727U 20073BK  21293.47485346  .00001750  00000-0  13633-3 0  9998","CLASSIFICATION_TYPE":"U","REV_AT_EPOCH":"5614","SITE":"AFETR","TIME_SYSTEM":"UTC","RA_OF_ASC_NODE":"204.7477","LAUNCH_DATE":"2020-10-18"},{"OBJECT_TYPE":"PAYLOAD","NORAD_CAT_ID":"46728","FILE":"3174692","MEAN_ELEMENT_THEORY":"SGP4","OBJECT_NAME":"STARLINK-1831","APOAPSIS":"404.196","EPOCH":"2021-10-20T12:26:41.629632","ELEMENT_SET_NO":"999","MEAN_MOTION_DDOT":"0.0000000000000","ECCENTRICITY":"0.00009610","TLE_LINE1":"1 46728U 20073BL  21293.51853738  .00070489  00000-0  10488-2 0  9997","MEAN_ANOMALY":"282.0286","RCS_SIZE":"LARGE","BSTAR":"0.00104880000000","TIME_SYSTEM":"UTC","LAUNCH_DATE":"2020-10-18","RA_OF_ASC_NODE":"215.1630","SITE":"AFETR","CLASSIFICATION_TYPE":"U","REV_AT_EPOCH":"5647","ARG_OF_PERICENTER":"78.0832","SEMIMAJOR_AXIS":"6781.679","PERIAPSIS":"402.893","GP_ID":"187723975","EPHEMERIS_TYPE":"0","COUNTRY_CODE":"US","MEAN_MOTION_DOT":"0.00070489","TLE_LINE2":"2 46728  53.0517 215.1630 0000961  78.0832 282.0286 15.54522022 56470","REF_FRAME":"TEME","DECAY_DATE":null,"INCLINATION":"53.0517","MEAN_MOTION":"15.54522022","OBJECT_ID":"2020-073BL","PERIOD":"92.633","CENTER_NAME":"EARTH"},{"GP_ID":"187716694","EPHEMERIS_TYPE":"0","PERIAPSIS":"546.130","MEAN_MOTION_DOT":"-0.00001736","COUNTRY_CODE":"US","ARG_OF_PERICENTER":"84.7074","SEMIMAJOR_AXIS":"6925.347","OBJECT_ID":"2020-074B","MEAN_MOTION":"15.06400474","CENTER_NAME":"EARTH","PERIOD":"95.592","INCLINATION":"53.0564","DECAY_DATE":null,"REF_FRAME":"TEME","TLE_LINE2":"2 46740  53.0564 314.9324 0001563  84.7074 275.4093 15.06400474 55255","MEAN_MOTION_DDOT":"0.0000000000000","ECCENTRICITY":"0.00015630","ELEMENT_SET_NO":"999","EPOCH":"2021-10-20T10:26:44.808576","APOAPSIS":"548.295","OBJECT_NAME":"STARLINK-1848","NORAD_CAT_ID":"46740","OBJECT_TYPE":"PAYLOAD","MEAN_ELEMENT_THEORY":"SGP4","FILE":"3174382","RA_OF_ASC_NODE":"314.9324","LAUNCH_DATE":"2020-10-24","TIME_SYSTEM":"UTC","REV_AT_EPOCH":"5525","CLASSIFICATION_TYPE":"U","SITE":"AFETR","MEAN_ANOMALY":"275.4093","TLE_LINE1":"1 46740U 20074B   21293.43524084 -.00001736  00000-0 -97683-4 0  9997","BSTAR":"-0.00009768300000","RCS_SIZE":"LARGE"},{"EPOCH":"2021-10-20T07:40:13.433088","APOAPSIS":"548.264","OBJECT_NAME":"STARLINK-1865","ECCENTRICITY":"0.00015140","MEAN_MOTION_DDOT":"0.0000000000000","ELEMENT_SET_NO":"999","NORAD_CAT_ID":"46741","OBJECT_TYPE":"PAYLOAD","FILE":"3174382","MEAN_ELEMENT_THEORY":"SGP4","RA_OF_ASC_NODE":"310.4540","LAUNCH_DATE":"2020-10-24","TIME_SYSTEM":"UTC","SITE":"AFETR","CLASSIFICATION_TYPE":"U","REV_AT_EPOCH":"5531","TLE_LINE1":"1 46741U 20074C   21293.31959992  .00002423  00000-0  18150-3 0  9998","MEAN_ANOMALY":"282.1513","RCS_SIZE":"LARGE","BSTAR":"0.00018150000000","EPHEMERIS_TYPE":"0","GP_ID":"187715442","PERIAPSIS":"546.167","COUNTRY_CODE":"US","MEAN_MOTION_DOT":"0.00002423","ARG_OF_PERICENTER":"77.9646","SEMIMAJOR_AXIS":"6925.351","MEAN_MOTION":"15.06399356","OBJECT_ID":"2020-074C","CENTER_NAME":"EARTH","PERIOD":"95.592","REF_FRAME":"TEME","TLE_LINE2":"2 46741  53.0545 310.4540 0001514  77.9646 282.1513 15.06399356 55316","INCLINATION":"53.0545","DECAY_DATE":null},{"FILE":"3174831","MEAN_ELEMENT_THEORY":"SGP4","NORAD_CAT_ID":"46742","OBJECT_TYPE":"PAYLOAD","EPOCH":"2021-10-20T13:19:54.172704","OBJECT_NAME":"STARLINK-1872","APOAPSIS":"548.208","MEAN_MOTION_DDOT":"0.0000000000000","ECCENTRICITY":"0.00014330","ELEMENT_SET_NO":"999","RCS_SIZE":"LARGE","BSTAR":"-0.00014281000000","TLE_LINE1":"1 46742U 20074D   21293.55548811 -.00002408  00000-0 -14281-3 0  9995","MEAN_ANOMALY":"272.3424","SITE":"AFETR","CLASSIFICATION_TYPE":"U","REV_AT_EPOCH":"5536","RA_OF_ASC_NODE":"309.3790","LAUNCH_DATE":"2020-10-24","TIME_SYSTEM":"UTC","SEMIMAJOR_AXIS":"6925.351","ARG_OF_PERICENTER":"87.7729","COUNTRY_CODE":"US","MEAN_MOTION_DOT":"-0.00002408","GP_ID":"187727492","EPHEMERIS_TYPE":"0","PERIAPSIS":"546.224","REF_FRAME":"TEME","TLE_LINE2":"2 46742  53.0542 309.3790 0001433  87.7729 272.3424 15.06399175 55365","INCLINATION":"53.0542","DECAY_DATE":null,"PERIOD":"95.592","CENTER_NAME":"EARTH","MEAN_MOTION":"15.06399175","OBJECT_ID":"2020-074D"},{"ELEMENT_SET_NO":"999","MEAN_MOTION_DDOT":"0.0000000000000","ECCENTRICITY":"0.00052520","OBJECT_NAME":"STARLINK-1892","APOAPSIS":"550.851","EPOCH":"2021-10-20T10:40:40.995552","OBJECT_TYPE":"PAYLOAD","NORAD_CAT_ID":"46743","MEAN_ELEMENT_THEORY":"SGP4","FILE":"3174382","TIME_SYSTEM":"UTC","RA_OF_ASC_NODE":"309.8868","LAUNCH_DATE":"2020-10-24","REV_AT_EPOCH":"5533","CLASSIFICATION_TYPE":"U","SITE":"AFETR","MEAN_ANOMALY":"348.2532","TLE_LINE1":"1 46743U 20074E   21293.44491893 -.00002936  00000-0 -17815-3 0  9993","BSTAR":"-0.00017815000000","RCS_SIZE":"LARGE","PERIAPSIS":"543.577","GP_ID":"187716443","EPHEMERIS_TYPE":"0","MEAN_MOTION_DOT":"-0.00002936","COUNTRY_CODE":"US","ARG_OF_PERICENTER":"11.8580","SEMIMAJOR_AXIS":"6925.349","OBJECT_ID":"2020-074E","MEAN_MOTION":"15.06399850","PERIOD":"95.592","CENTER_NAME":"EARTH","DECAY_DATE":null,"INCLINATION":"53.0539","TLE_LINE2":"2 46743  53.0539 309.8868 0005252  11.8580 348.2532 15.06399850 55339","REF_FRAME":"TEME"},{"RCS_SIZE":"LARGE","BSTAR":"-0.00012186000000","TLE_LINE1":"1 46744U 20074F   21293.46334725 -.00002096  00000-0 -12186-3 0  9999","MEAN_ANOMALY":"275.5484","SITE":"AFETR","CLASSIFICATION_TYPE":"U","REV_AT_EPOCH":"5533","RA_OF_ASC_NODE":"309.8029","LAUNCH_DATE":"2020-10-24","TIME_SYSTEM":"UTC","FILE":"3174382","MEAN_ELEMENT_THEORY":"SGP4","NORAD_CAT_ID":"46744","OBJECT_TYPE":"PAYLOAD","EPOCH":"2021-10-20T11:07:13.202400","OBJECT_NAME":"STARLINK-1894","APOAPSIS":"548.317","MEAN_MOTION_DDOT":"0.0000000000000","ECCENTRICITY":"0.00015480","ELEMENT_SET_NO":"999","REF_FRAME":"TEME","TLE_LINE2":"2 46744  53.0537 309.8029 0001548  84.5681 275.5484 15.06389848 55334","INCLINATION":"53.0537","DECAY_DATE":null,"CENTER_NAME":"EARTH","PERIOD":"95.593","MEAN_MOTION":"15.06389848","OBJECT_ID":"2020-074F","SEMIMAJOR_AXIS":"6925.380","ARG_OF_PERICENTER":"84.5681","COUNTRY_CODE":"US","MEAN_MOTION_DOT":"-0.00002096","GP_ID":"187716195","EPHEMERIS_TYPE":"0","PERIAPSIS":"546.173"},{"ARG_OF_PERICENTER":"81.3420","SEMIMAJOR_AXIS":"6925.333","GP_ID":"187714943","EPHEMERIS_TYPE":"0","PERIAPSIS":"546.248","COUNTRY_CODE":"US","MEAN_MOTION_DOT":"-0.00000411","REF_FRAME":"TEME","TLE_LINE2":"2 46745  53.0542 309.3946 0001372  81.3420 278.7725 15.06404929 55347","INCLINATION":"53.0542","DECAY_DATE":null,"MEAN_MOTION":"15.06404929","OBJECT_ID":"2020-074G","CENTER_NAME":"EARTH","PERIOD":"95.592","NORAD_CAT_ID":"46745","OBJECT_TYPE":"PAYLOAD","FILE":"3174382","MEAN_ELEMENT_THEORY":"SGP4","EPOCH":"2021-10-20T13:14:36.349440","APOAPSIS":"548.149","OBJECT_NAME":"STARLINK-1898","ECCENTRICITY":"0.00013720","MEAN_MOTION_DDOT":"0.0000000000000","ELEMENT_SET_NO":"999","TLE_LINE1":"1 46745U 20074G   21293.55180960 -.00000411  00000-0 -87152-5 0  9996","MEAN_ANOMALY":"278.7725","RCS_SIZE":"LARGE","BSTAR":"-0.00000871520000","LAUNCH_DATE":"2020-10-24","RA_OF_ASC_NODE":"309.3946","TIME_SYSTEM":"UTC","SITE":"AFETR","CLASSIFICATION_TYPE":"U","REV_AT_EPOCH":"5534"},{"REF_FRAME":"TEME","TLE_LINE2":"2 46746  53.0554 310.0271 0001412  80.6311 279.4838 15.06399236 55322","INCLINATION":"53.0554","DECAY_DATE":null,"PERIOD":"95.592","CENTER_NAME":"EARTH","MEAN_MOTION":"15.06399236","OBJECT_ID":"2020-074H","SEMIMAJOR_AXIS":"6925.351","ARG_OF_PERICENTER":"80.6311","COUNTRY_CODE":"US","MEAN_MOTION_DOT":"-0.00000264","GP_ID":"187715693","EPHEMERIS_TYPE":"0","PERIAPSIS":"546.238","RCS_SIZE":"LARGE","BSTAR":"0.00000119900000","TLE_LINE1":"1 46746U 20074H   21293.41175784 -.00000264  00000-0  11990-5 0  9992","MEAN_ANOMALY":"279.4838","SITE":"AFETR","CLASSIFICATION_TYPE":"U","REV_AT_EPOCH":"5532","LAUNCH_DATE":"2020-10-24","RA_OF_ASC_NODE":"310.0271","TIME_SYSTEM":"UTC","FILE":"3174382","MEAN_ELEMENT_THEORY":"SGP4","NORAD_CAT_ID":"46746","OBJECT_TYPE":"PAYLOAD","EPOCH":"2021-10-20T09:52:55.877376","APOAPSIS":"548.194","OBJECT_NAME":"STARLINK-1905","ECCENTRICITY":"0.00014120","MEAN_MOTION_DDOT":"0.0000000000000","ELEMENT_SET_NO":"999"}];
